IRIDIUM 39              
1 25042U 97069D   25088.92878819  .00001658  00000+0  43101-3 0  9990
2 25042  86.3884 245.0964 0017010 205.6481 154.3881 14.49053212437484
IRIDIUM 44              
1 25078U 97077B   25089.20160222  .00001123  00000+0  34965-3 0  9997
2 25078  86.3914 254.5857 0000625  30.4072 329.7164 14.40137527432364
IRIDIUM 45              
1 25104U 97082A   25089.22485046  .00024918  00000+0  98217-3 0  9996
2 25104  86.3540  86.1421 0121074 266.6792  92.0594 15.18820407440299
IRIDIUM 24              
1 25105U 97082B   25089.13710110  .00000992  00000+0  29661-3 0  9993
2 25105  86.3866 113.8437 0010746 351.2560   8.8451 14.41980167432072
IRIDIUM 51              
1 25262U 98018A   25089.04087677  .00033050  00000+0  88002-3 0  9997
2 25262  86.3802  94.8369 0098256 190.9747 168.9362 15.33174551435093
